0 COSMOS 2251 DEB
1 33806U 93036AX  13281.31302285  .00005117  00000-0  12232-2 0   212
2 33806 074.0923 089.2443 0075923 201.3460 227.8043 14.52102736245883
0 COSMOS 2251 DEB
1 33806U 93036AX  13282.68951084  .00008571  00000-0  20421-2 0   227
2 33806 074.0925 086.6594 0075817 198.4718 223.4660 14.52131458246080
0 COSMOS 2251 DEB
1 33806U 93036AX  13283.57324892  .00004439  00000-0  10535-2 0   232
2 33806 074.0918 085.0044 0076682 196.2900 163.6291 14.52126415246212
0 COSMOS 2251 DEB
1 33806U 93036AX  13283.79214241  .00009355  00000-0  22278-2 0   231
2 33806 074.0923 084.5885 0075748 196.1518 227.6307 14.52138860246240
0 COSMOS 2251 DEB
1 33806U 93036AX  13285.51487072  .00007159  00000-0  17063-2 0   244
2 33806 074.0920 081.3528 0075658 192.5273 233.5421 14.52161620246494
0 COSMOS 2251 DEB
1 33806U 93036AX  13287.79645520  .00010687  00000-0  25412-2 0   258
2 33806 074.0919 077.0671 0075456 187.7381 281.2007 14.52192266246822
0 COSMOS 2251 DEB
1 33806U 93036AX  13290.12793816  .00010490  00000-0  24928-2 0   265
2 33806 074.0926 072.6876 0075257 182.8300 230.0594 14.52233784247166
0 COSMOS 2251 DEB
1 33806U 93036AX  13292.48167881  .00009563  00000-0  22719-2 0   279
2 33806 074.0934 068.2666 0075023 177.8620 295.6375 14.52277480247506
0 COSMOS 2251 DEB
1 33806U 93036AX  13294.82447597  .00012217  00000-0  28975-2 0   285
2 33806 074.0936 063.8659 0074759 172.9085 304.3651 14.52316230247846
